SAUDISAT 1C             
1 27607U 02058C   22344.72133713  .00001302  00000+0  19714-3 0  9999
2 27607  64.5538 122.3731 0080851 261.0129  98.1817 14.76464526 74399
SAUDISAT 2              
1 28371U 04025F   22344.93364326  .00000407  00000+0  10596-3 0  9997
2 28371  98.4041 302.2543 0024542 283.5242  76.3215 14.54668230978941
SAUDISAT 3              
1 31118U 07012B   22345.42726788  .00000366  00000+0  69899-4 0  9993
2 31118  97.9920 288.3816 0015040 357.7222   2.3913 14.69433478839148
PISAT                   
1 41784U 16059B   22345.08952699  .00000777  00000+0  15572-3 0  9992
2 41784  97.8944  21.3836 0030927 333.1458  26.8143 14.64138913331537
FLYING LAPTOP           
1 42831U 17042G   22344.78456882  .00001736  00000+0  17530-3 0  9990
2 42831  97.3999 188.8364 0014756 133.6125 226.6356 14.92183879294386
SALSAT                  
1 46495U 20068K   22344.82983985  .00003200  00000+0  22656-3 0  9999
2 46495  97.7504 286.4387 0017730  44.5169 315.7478 15.05443772120711
